[
    {
        "Altitude(m)": 717841.5071543806,
        "Argument of Periapsis(deg)": 0.011390121186627068,
        "Eccentricity": 0.0,
        "Inclination(deg)": 45.0,
        "Latitude(deg)": -45.055985978665625,
        "Longitude(deg)": -86.03288705007256,
        "Mean Anomaly(deg)": -86.6485833525192,
        "RAAN(deg)": 99.9892480585418,
        "Satellite Name": "Constellation 1 456",
        "Satellite Number": 456,
        "Semi-Major Axis(m)": 7083131.272910544,
        "Time(s)": 190
    },
    {
        "Altitude(m)": 717840.0278596206,
        "Argument of Periapsis(deg)": 0.011450069192872472,
        "Eccentricity": 0.0,
        "Inclination(deg)": 45.0,
        "Latitude(deg)": -45.05240988347786,
        "Longitude(deg)": -85.95165597441365,
        "Mean Anomaly(deg)": -86.58788221226926,
        "RAAN(deg)": 99.98919146937622,
        "Satellite Name": "Constellation 1 456",
        "Satellite Number": 456,
        "Semi-Major Axis(m)": 7083131.272910544,
        "Time(s)": 191
    },
    {
        "Altitude(m)": 717838.5223129974,
        "Argument of Periapsis(deg)": 0.01151001719911788,
        "Eccentricity": 0.0,
        "Inclination(deg)": 45.0,
        "Latitude(deg)": -45.0487700509458,
        "Longitude(deg)": -85.8704356059898,
        "Mean Anomaly(deg)": -86.52718107201935,
        "RAAN(deg)": 99.98913488021066,
        "Satellite Name": "Constellation 1 456",
        "Satellite Number": 456,
        "Semi-Major Axis(m)": 7083131.272910544,
        "Time(s)": 192
    },
    {
        "Altitude(m)": 717836.9905200491,
        "Argument of Periapsis(deg)": 0.011569965205363285,
        "Eccentricity": 0.0,
        "Inclination(deg)": 45.0,
        "Latitude(deg)": -45.04506649704985,
        "Longitude(deg)": -85.78922629925754,
        "Mean Anomaly(deg)": -86.46647993176948,
        "RAAN(deg)": 99.98907829104508,
        "Satellite Name": "Constellation 1 456",
        "Satellite Number": 456,
        "Semi-Major Axis(m)": 7083131.272910544,
        "Time(s)": 193
    },
    {
        "Altitude(m)": 717835.4324864162,
        "Argument of Periapsis(deg)": 0.01162991321160869,
        "Eccentricity": 0.0,
        "Inclination(deg)": 45.0,
        "Latitude(deg)": -45.041299238045085,
        "Longitude(deg)": -85.70802790418875,
        "Mean Anomaly(deg)": -86.40577879151957,
        "RAAN(deg)": 99.98902170187951,
        "Satellite Name": "Constellation 1 456",
        "Satellite Number": 456,
        "Semi-Major Axis(m)": 7083131.272910544,
        "Time(s)": 194
    },
    {
        "Altitude(m)": 717833.8482178309,
        "Argument of Periapsis(deg)": 0.011689861217854095,
        "Eccentricity": 0.0,
        "Inclination(deg)": 45.0,
        "Latitude(deg)": -45.03746829046068,
        "Longitude(deg)": -85.62684077485198,
        "Mean Anomaly(deg)": -86.34507765126966,
        "RAAN(deg)": 99.98896511271396,
        "Satellite Name": "Constellation 1 456",
        "Satellite Number": 456,
        "Semi-Major Axis(m)": 7083131.272910544,
        "Time(s)": 195
    },
    {
        "Altitude(m)": 717832.2377201277,
        "Argument of Periapsis(deg)": 0.0117498092240995,
        "Eccentricity": 0.0,
        "Inclination(deg)": 45.0,
        "Latitude(deg)": -45.03357367109975,
        "Longitude(deg)": -85.5456650970195,
        "Mean Anomaly(deg)": -86.28437651101974,
        "RAAN(deg)": 99.98890852354837,
        "Satellite Name": "Constellation 1 456",
        "Satellite Number": 456,
        "Semi-Major Axis(m)": 7083131.272910544,
        "Time(s)": 196
    },
    {
        "Altitude(m)": 717830.6009992291,
        "Argument of Periapsis(deg)": 0.011809757230344905,
        "Eccentricity": 0.0,
        "Inclination(deg)": 45.0,
        "Latitude(deg)": -45.02961539703905,
        "Longitude(deg)": -85.46450105626154,
        "Mean Anomaly(deg)": -86.22367537076988,
        "RAAN(deg)": 99.98885193438281,
        "Satellite Name": "Constellation 1 456",
        "Satellite Number": 456,
        "Semi-Major Axis(m)": 7083131.272910544,
        "Time(s)": 197
    },
    {
        "Altitude(m)": 717828.9380611688,
        "Argument of Periapsis(deg)": 0.011869705236590313,
        "Eccentricity": 0.0,
        "Inclination(deg)": 45.0,
        "Latitude(deg)": -45.02559348562828,
        "Longitude(deg)": -85.383348837943,
        "Mean Anomaly(deg)": -86.16297423051998,
        "RAAN(deg)": 99.98879534521723,
        "Satellite Name": "Constellation 1 456",
        "Satellite Number": 456,
        "Semi-Major Axis(m)": 7083131.272910544,
        "Time(s)": 198
    },
    {
        "Altitude(m)": 717827.2489120611,
        "Argument of Periapsis(deg)": 0.011929653242835719,
        "Eccentricity": 0.0,
        "Inclination(deg)": 45.0,
        "Latitude(deg)": -45.02150795449014,
        "Longitude(deg)": -85.30220862722068,
        "Mean Anomaly(deg)": -86.10227309027007,
        "RAAN(deg)": 99.98873875605167,
        "Satellite Name": "Constellation 1 456",
        "Satellite Number": 456,
        "Semi-Major Axis(m)": 7083131.272910544,
        "Time(s)": 199
    }
]